start=new Date('2022-03-04T00:00:00.000Z').valueOf();
sats=[{"MEAN_MOTION":"15.06400544","SITE":"AFETR","PERIAPSIS":"545.933","GP_ID":"197705612","TLE_LINE2":"2 44941  53.0554  73.5013 0001846  50.7147 309.4006 15.06400544118975","OBJECT_NAME":"STARLINK-1094","ECCENTRICITY":"0.00018460","MEAN_MOTION_DOT":"0.00000463","FILE":"3342689","BSTAR":"0.00004995400000","SEMIMAJOR_AXIS":"6925.347","ARG_OF_PERICENTER":"50.7147","OBJECT_ID":"2020-001AD","RA_OF_ASC_NODE":"73.5013","ELEMENT_SET_NO":"999","TIME_SYSTEM":"UTC","PERIOD":"95.592","CENTER_NAME":"EARTH","NORAD_CAT_ID":"44941","EPOCH":"2022-03-03T09:47:37.748256","APOAPSIS":"548.490","MEAN_ANOMALY":"309.4006","TLE_LINE1":"1 44941U 20001AD  22062.40807579  .00000463  00000-0  49954-4 0  9995","DECAY_DATE":null,"REF_FRAME":"TEME","LAUNCH_DATE":"2020-01-07","COUNTRY_CODE":"US","MEAN_ELEMENT_THEORY":"SGP4","REV_AT_EPOCH":"11897","MEAN_MOTION_DDOT":"0.0000000000000","INCLINATION":"53.0554","CLASSIFICATION_TYPE":"U","EPHEMERIS_TYPE":"0","OBJECT_TYPE":"PAYLOAD","RCS_SIZE":"LARGE"},{"MEAN_MOTION_DDOT":"0.0000000000000","INCLINATION":"53.0542","MEAN_ELEMENT_THEORY":"SGP4","REV_AT_EPOCH":"11902","MEAN_ANOMALY":"311.0677","TLE_LINE1":"1 44942U 20001AE  22062.72505675  .00001192  00000-0  98887-4 0  9992","COUNTRY_CODE":"US","DECAY_DATE":null,"LAUNCH_DATE":"2020-01-07","REF_FRAME":"TEME","APOAPSIS":"548.310","RCS_SIZE":"LARGE","OBJECT_TYPE":"PAYLOAD","EPHEMERIS_TYPE":"0","CLASSIFICATION_TYPE":"U","TIME_SYSTEM":"UTC","ELEMENT_SET_NO":"999","RA_OF_ASC_NODE":"72.0750","NORAD_CAT_ID":"44942","EPOCH":"2022-03-03T17:24:04.903200","CENTER_NAME":"EARTH","PERIOD":"95.592","OBJECT_ID":"2020-001AE","SEMIMAJOR_AXIS":"6925.328","ARG_OF_PERICENTER":"49.0452","TLE_LINE2":"2 44942  53.0542  72.0750 0001613  49.0452 311.0677 15.06406612119029","GP_ID":"197764779","PERIAPSIS":"546.076","SITE":"AFETR","MEAN_MOTION":"15.06406612","FILE":"3343255","BSTAR":"0.00009888700000","ECCENTRICITY":"0.00016130","MEAN_MOTION_DOT":"0.00001192","OBJECT_NAME":"STARLINK-1096"},{"RA_OF_ASC_NODE":"73.3716","ELEMENT_SET_NO":"999","TIME_SYSTEM":"UTC","PERIOD":"95.592","CENTER_NAME":"EARTH","EPOCH":"2022-03-03T10:30:04.983552","NORAD_CAT_ID":"44943","APOAPSIS":"548.466","TLE_LINE1":"1 44943U 20001AF  22062.43755768  .00000764  00000-0  70182-4 0  9993","DECAY_DATE":null,"LAUNCH_DATE":"2020-01-07","COUNTRY_CODE":"US","REF_FRAME":"TEME","MEAN_ANOMALY":"296.8207","REV_AT_EPOCH":"11897","MEAN_ELEMENT_THEORY":"SGP4","INCLINATION":"53.0546","MEAN_MOTION_DDOT":"0.0000000000000","CLASSIFICATION_TYPE":"U","EPHEMERIS_TYPE":"0","RCS_SIZE":"LARGE","OBJECT_TYPE":"PAYLOAD","MEAN_MOTION":"15.06395524","SITE":"AFETR","PERIAPSIS":"545.989","GP_ID":"197705112","TLE_LINE2":"2 44943  53.0546  73.3716 0001788  63.2965 296.8207 15.06395524118971","OBJECT_NAME":"STARLINK-1100","ECCENTRICITY":"0.00017880","MEAN_MOTION_DOT":"0.00000764","BSTAR":"0.00007018200000","FILE":"3342689","ARG_OF_PERICENTER":"63.2965","SEMIMAJOR_AXIS":"6925.362","OBJECT_ID":"2020-001AF"},{"EPOCH":"2022-03-03T18:01:14.470752","NORAD_CAT_ID":"44944","PERIOD":"95.592","CENTER_NAME":"EARTH","TIME_SYSTEM":"UTC","RA_OF_ASC_NODE":"71.9611","ELEMENT_SET_NO":"999","RCS_SIZE":"LARGE","OBJECT_TYPE":"PAYLOAD","CLASSIFICATION_TYPE":"U","EPHEMERIS_TYPE":"0","REV_AT_EPOCH":"11902","MEAN_ELEMENT_THEORY":"SGP4","INCLINATION":"53.0549","MEAN_MOTION_DDOT":"0.0000000000000","APOAPSIS":"548.382","COUNTRY_CODE":"US","TLE_LINE1":"1 44944U 20001AG  22062.75086193  .00000852  00000-0  76055-4 0  9991","DECAY_DATE":null,"LAUNCH_DATE":"2020-01-07","REF_FRAME":"TEME","MEAN_ANOMALY":"302.6101","BSTAR":"0.00007605500000","FILE":"3343255","OBJECT_NAME":"STARLINK-1108","MEAN_MOTION_DOT":"0.00000852","ECCENTRICITY":"0.00017200","PERIAPSIS":"546.000","SITE":"AFETR","GP_ID":"197766281","TLE_LINE2":"2 44944  53.0549  71.9611 0001720  57.5054 302.6101 15.06407415119023","MEAN_MOTION":"15.06407415","ARG_OF_PERICENTER":"57.5054","SEMIMAJOR_AXIS":"6925.326","OBJECT_ID":"2020-001AG"},{"OBJECT_TYPE":"PAYLOAD","RCS_SIZE":"LARGE","CLASSIFICATION_TYPE":"U","EPHEMERIS_TYPE":"0","REV_AT_EPOCH":"11901","MEAN_ELEMENT_THEORY":"SGP4","INCLINATION":"53.0545","MEAN_MOTION_DDOT":"0.0000000000000","APOAPSIS":"548.470","DECAY_DATE":null,"TLE_LINE1":"1 44945U 20001AH  22062.71400957 -.00000251  00000-0  20636-5 0  9995","LAUNCH_DATE":"2020-01-07","COUNTRY_CODE":"US","REF_FRAME":"TEME","MEAN_ANOMALY":"298.8194","EPOCH":"2022-03-03T17:08:10.426848","NORAD_CAT_ID":"44945","PERIOD":"95.592","CENTER_NAME":"EARTH","TIME_SYSTEM":"UTC","RA_OF_ASC_NODE":"72.1208","ELEMENT_SET_NO":"999","ARG_OF_PERICENTER":"61.2977","SEMIMAJOR_AXIS":"6925.352","OBJECT_ID":"2020-001AH","BSTAR":"0.00000206360000","FILE":"3343255","OBJECT_NAME":"STARLINK-1109","ECCENTRICITY":"0.00018100","MEAN_MOTION_DOT":"-0.00000251","PERIAPSIS":"545.963","SITE":"AFETR","GP_ID":"197766031","TLE_LINE2":"2 44945  53.0545  72.1208 0001810  61.2977 298.8194 15.06399015119014","MEAN_MOTION":"15.06399015"},{"OBJECT_TYPE":"PAYLOAD","RCS_SIZE":"LARGE","CLASSIFICATION_TYPE":"U","EPHEMERIS_TYPE":"0","REV_AT_EPOCH":"11902","MEAN_ELEMENT_THEORY":"SGP4","INCLINATION":"53.0040","MEAN_MOTION_DDOT":"0.0000000000000","APOAPSIS":"535.428","TLE_LINE1":"1 44946U 20001AJ  22062.28267381  .00008634  00000-0  53763-3 0  9997","DECAY_DATE":null,"LAUNCH_DATE":"2020-01-07","COUNTRY_CODE":"US","REF_FRAME":"TEME","MEAN_ANOMALY":"223.7673","EPOCH":"2022-03-03T06:47:03.017184","NORAD_CAT_ID":"44946","PERIOD":"95.343","CENTER_NAME":"EARTH","TIME_SYSTEM":"UTC","RA_OF_ASC_NODE":"67.0583","ELEMENT_SET_NO":"999","ARG_OF_PERICENTER":"136.3344","SEMIMAJOR_AXIS":"6913.330","OBJECT_ID":"2020-001AJ","BSTAR":"0.00053763000000","FILE":"3342689","OBJECT_NAME":"STARLINK-1110","MEAN_MOTION_DOT":"0.00008634","ECCENTRICITY":"0.00003370","SITE":"AFETR","PERIAPSIS":"534.962","TLE_LINE2":"2 44946  53.0040  67.0583 0000337 136.3344 223.7673 15.10329851119025","GP_ID":"197704363","MEAN_MOTION":"15.10329851"},{"SITE":"AFETR","PERIAPSIS":"545.850","GP_ID":"197765530","TLE_LINE2":"2 44947  53.0544  72.6142 0001992  50.1085 310.0079 15.06394915119007","MEAN_MOTION":"15.06394915","BSTAR":"0.00008342700000","FILE":"3343255","OBJECT_NAME":"STARLINK-1116","ECCENTRICITY":"0.00019920","MEAN_MOTION_DOT":"0.00000961","ARG_OF_PERICENTER":"50.1085","SEMIMAJOR_AXIS":"6925.364","OBJECT_ID":"2020-001AK","TIME_SYSTEM":"UTC","RA_OF_ASC_NODE":"72.6142","ELEMENT_SET_NO":"999","EPOCH":"2022-03-03T14:28:56.149824","NORAD_CAT_ID":"44947","PERIOD":"95.592","CENTER_NAME":"EARTH","MEAN_ELEMENT_THEORY":"SGP4","REV_AT_EPOCH":"11900","INCLINATION":"53.0544","MEAN_MOTION_DDOT":"0.0000000000000","APOAPSIS":"548.609","DECAY_DATE":null,"TLE_LINE1":"1 44947U 20001AK  22062.60342766  .00000961  00000-0  83427-4 0  9991","COUNTRY_CODE":"US","LAUNCH_DATE":"2020-01-07","REF_FRAME":"TEME","MEAN_ANOMALY":"310.0079","RCS_SIZE":"LARGE","OBJECT_TYPE":"PAYLOAD","CLASSIFICATION_TYPE":"U","EPHEMERIS_TYPE":"0"},{"NORAD_CAT_ID":"44949","EPOCH":"2022-03-03T18:17:10.350240","PERIOD":"95.592","CENTER_NAME":"EARTH","TIME_SYSTEM":"UTC","RA_OF_ASC_NODE":"71.9169","ELEMENT_SET_NO":"999","RCS_SIZE":"LARGE","OBJECT_TYPE":"PAYLOAD","CLASSIFICATION_TYPE":"U","EPHEMERIS_TYPE":"0","MEAN_ELEMENT_THEORY":"SGP4","REV_AT_EPOCH":"11902","MEAN_MOTION_DDOT":"0.0000000000000","INCLINATION":"53.0530","APOAPSIS":"548.546","MEAN_ANOMALY":"303.0742","TLE_LINE1":"1 44949U 20001AM  22062.76192535  .00002349  00000-0  17656-3 0  9999","LAUNCH_DATE":"2020-01-07","DECAY_DATE":null,"COUNTRY_CODE":"US","REF_FRAME":"TEME","FILE":"3343255","BSTAR":"0.00017656000000","OBJECT_NAME":"STARLINK-1122","MEAN_MOTION_DOT":"0.00002349","ECCENTRICITY":"0.00019370","SITE":"AFETR","PERIAPSIS":"545.864","GP_ID":"197765781","TLE_LINE2":"2 44949  53.0530  71.9169 0001937  57.0433 303.0742 15.06402806119027","MEAN_MOTION":"15.06402806","ARG_OF_PERICENTER":"57.0433","SEMIMAJOR_AXIS":"6925.340","OBJECT_ID":"2020-001AM"},{"OBJECT_TYPE":"PAYLOAD","RCS_SIZE":"LARGE","EPHEMERIS_TYPE":"0","CLASSIFICATION_TYPE":"U","MEAN_MOTION_DDOT":"0.0000000000000","INCLINATION":"53.0541","MEAN_ELEMENT_THEORY":"SGP4","REV_AT_EPOCH":"11901","MEAN_ANOMALY":"302.5349","TLE_LINE1":"1 44950U 20001AN  22062.71032280  .00000896  00000-0  79039-4 0  9995","LAUNCH_DATE":"2020-01-07","DECAY_DATE":null,"REF_FRAME":"TEME","COUNTRY_CODE":"US","APOAPSIS":"548.351","NORAD_CAT_ID":"44950","EPOCH":"2022-03-03T17:02:51.889920","CENTER_NAME":"EARTH","PERIOD":"95.592","TIME_SYSTEM":"UTC","ELEMENT_SET_NO":"999","RA_OF_ASC_NODE":"72.1413","OBJECT_ID":"2020-001AN","ARG_OF_PERICENTER":"57.5797","SEMIMAJOR_AXIS":"6925.362","FILE":"3343255","BSTAR":"0.00007903900000","ECCENTRICITY":"0.00016230","MEAN_MOTION_DOT":"0.00000896","OBJECT_NAME":"STARLINK-1125","TLE_LINE2":"2 44950  53.0541  72.1413 0001623  57.5797 302.5349 15.06395759119010","GP_ID":"197766532","SITE":"AFETR","PERIAPSIS":"546.103","MEAN_MOTION":"15.06395759"},{"EPOCH":"2022-03-03T10:15:23.820192","NORAD_CAT_ID":"44951","CENTER_NAME":"EARTH","PERIOD":"95.353","TIME_SYSTEM":"UTC","ELEMENT_SET_NO":"999","RA_OF_ASC_NODE":"67.0768","RCS_SIZE":"LARGE","OBJECT_TYPE":"PAYLOAD","EPHEMERIS_TYPE":"0","CLASSIFICATION_TYPE":"U","INCLINATION":"53.0037","MEAN_MOTION_DDOT":"0.0000000000000","MEAN_ELEMENT_THEORY":"SGP4","REV_AT_EPOCH":"12032","COUNTRY_CODE":"US","TLE_LINE1":"1 44951U 20001AP  22062.42735903  .00008122  00000-0  50898-3 0  9997","DECAY_DATE":null,"LAUNCH_DATE":"2020-01-07","REF_FRAME":"TEME","MEAN_ANOMALY":"220.6531","APOAPSIS":"535.949","BSTAR":"0.00050898000000","FILE":"3342689","MEAN_MOTION_DOT":"0.00008122","ECCENTRICITY":"0.00004080","OBJECT_NAME":"STARLINK-1126","GP_ID":"197704863","TLE_LINE2":"2 44951  53.0037  67.0768 0000408 139.4489 220.6531 15.10175186120329","PERIAPSIS":"535.385","SITE":"AFETR","MEAN_MOTION":"15.10175186","OBJECT_ID":"2020-001AP","ARG_OF_PERICENTER":"139.4489","SEMIMAJOR_AXIS":"6913.802"}];
